CCSDS_OMM_VERS = 2.0
CREATION_DATE  = 
ORIGINATOR     = 

OBJECT_NAME    = STARLINK-36368
OBJECT_ID      = 2026-035J
CENTER_NAME    = EARTH
REF_FRAME      = TEME
TIME_SYSTEM    = UTC
MEAN_ELEMENT_THEORY = SGP/SGP4

EPOCH          = 2026-02-25T22:55:54.405984
MEAN_MOTION    = 16.09607275
ECCENTRICITY   = .0000802
INCLINATION    = 97.2828
RA_OF_ASC_NODE = 348.2741
ARG_OF_PERICENTER = 137.5190
MEAN_ANOMALY   = 222.6156

EPHEMERIS_TYPE = 0
CLASSIFICATION_TYPE = U
NORAD_CAT_ID   = 67887
ELEMENT_SET_NO = 999
REV_AT_EPOCH   = 196
BSTAR          = .78493E-4
MEAN_MOTION_DOT = .70363E-3
MEAN_MOTION_DDOT = .45821E-5

CCSDS_OMM_VERS = 2.0
CREATION_DATE  = 
ORIGINATOR     = 

OBJECT_NAME    = STARLINK-36801
OBJECT_ID      = 2026-035K
CENTER_NAME    = EARTH
REF_FRAME      = TEME
TIME_SYSTEM    = UTC
MEAN_ELEMENT_THEORY = SGP/SGP4

EPOCH          = 2026-02-25T22:55:39.986688
MEAN_MOTION    = 16.09700536
ECCENTRICITY   = .0000218
INCLINATION    = 97.2834
RA_OF_ASC_NODE = 348.2742
ARG_OF_PERICENTER = 32.5899
MEAN_ANOMALY   = 327.5398

EPHEMERIS_TYPE = 0
CLASSIFICATION_TYPE = U
NORAD_CAT_ID   = 67888
ELEMENT_SET_NO = 999
REV_AT_EPOCH   = 196
BSTAR          = .31584E-4
MEAN_MOTION_DOT = .2805E-3
MEAN_MOTION_DDOT = .26731E-5

CCSDS_OMM_VERS = 2.0
CREATION_DATE  = 
ORIGINATOR     = 

OBJECT_NAME    = STARLINK-36372
OBJECT_ID      = 2026-035L
CENTER_NAME    = EARTH
REF_FRAME      = TEME
TIME_SYSTEM    = UTC
MEAN_ELEMENT_THEORY = SGP/SGP4

EPOCH          = 2026-02-25T22:55:11.530848
MEAN_MOTION    = 16.09980005
ECCENTRICITY   = .0000663
INCLINATION    = 97.2827
RA_OF_ASC_NODE = 348.2746
ARG_OF_PERICENTER = 127.6061
MEAN_ANOMALY   = 232.5283

EPHEMERIS_TYPE = 0
CLASSIFICATION_TYPE = U
NORAD_CAT_ID   = 67889
ELEMENT_SET_NO = 999
REV_AT_EPOCH   = 196
BSTAR          = .121E-3
MEAN_MOTION_DOT = .111528E-2
MEAN_MOTION_DDOT = .80797E-5

CCSDS_OMM_VERS = 2.0
CREATION_DATE  = 
ORIGINATOR     = 

OBJECT_NAME    = STARLINK-36363
OBJECT_ID      = 2026-035M
CENTER_NAME    = EARTH
REF_FRAME      = TEME
TIME_SYSTEM    = UTC
MEAN_ELEMENT_THEORY = SGP/SGP4

EPOCH          = 2026-02-25T22:55:23.871360
MEAN_MOTION    = 16.09854069
ECCENTRICITY   = .0000471
INCLINATION    = 97.2831
RA_OF_ASC_NODE = 348.2746
ARG_OF_PERICENTER = 119.4689
MEAN_ANOMALY   = 240.6641

EPHEMERIS_TYPE = 0
CLASSIFICATION_TYPE = U
NORAD_CAT_ID   = 67890
ELEMENT_SET_NO = 999
REV_AT_EPOCH   = 196
BSTAR          = .39745E-4
MEAN_MOTION_DOT = .35847E-3
MEAN_MOTION_DDOT = .29044E-5

CCSDS_OMM_VERS = 2.0
CREATION_DATE  = 
ORIGINATOR     = 

OBJECT_NAME    = STARLINK-36816
OBJECT_ID      = 2026-035N
CENTER_NAME    = EARTH
REF_FRAME      = TEME
TIME_SYSTEM    = UTC
MEAN_ELEMENT_THEORY = SGP/SGP4

EPOCH          = 2026-02-25T22:51:42.956928
MEAN_MOTION    = 16.11709526
ECCENTRICITY   = .0000842
INCLINATION    = 97.2817
RA_OF_ASC_NODE = 348.2775
ARG_OF_PERICENTER = 5.1269
MEAN_ANOMALY   = 355.0024

EPHEMERIS_TYPE = 0
CLASSIFICATION_TYPE = U
NORAD_CAT_ID   = 67891
ELEMENT_SET_NO = 999
REV_AT_EPOCH   = 196
BSTAR          = .91984E-4
MEAN_MOTION_DOT = .94881E-3
MEAN_MOTION_DDOT = .66005E-5

CCSDS_OMM_VERS = 2.0
CREATION_DATE  = 
ORIGINATOR     = 

OBJECT_NAME    = STARLINK-36813
OBJECT_ID      = 2026-035P
CENTER_NAME    = EARTH
REF_FRAME      = TEME
TIME_SYSTEM    = UTC
MEAN_ELEMENT_THEORY = SGP/SGP4

EPOCH          = 2026-02-25T21:23:52.315008
MEAN_MOTION    = 16.10983780
ECCENTRICITY   = .0000803
INCLINATION    = 97.2822
RA_OF_ASC_NODE = 348.2076
ARG_OF_PERICENTER = 105.9993
MEAN_ANOMALY   = 254.1380

EPHEMERIS_TYPE = 0
CLASSIFICATION_TYPE = U
NORAD_CAT_ID   = 67892
ELEMENT_SET_NO = 999
REV_AT_EPOCH   = 195
BSTAR          = -.36796E-4
MEAN_MOTION_DOT = -.37186E-3
MEAN_MOTION_DDOT = .29052E-5

CCSDS_OMM_VERS = 2.0
CREATION_DATE  = 
ORIGINATOR     = 

OBJECT_NAME    = STARLINK-36803
OBJECT_ID      = 2026-035Q
CENTER_NAME    = EARTH
REF_FRAME      = TEME
TIME_SYSTEM    = UTC
MEAN_ELEMENT_THEORY = SGP/SGP4

EPOCH          = 2026-02-25T22:54:54.763200
MEAN_MOTION    = 16.10123857
ECCENTRICITY   = .0000574
INCLINATION    = 97.2826
RA_OF_ASC_NODE = 348.2750
ARG_OF_PERICENTER = 128.6434
MEAN_ANOMALY   = 231.4901

EPHEMERIS_TYPE = 0
CLASSIFICATION_TYPE = U
NORAD_CAT_ID   = 67893
ELEMENT_SET_NO = 999
REV_AT_EPOCH   = 196
BSTAR          = .93189E-4
MEAN_MOTION_DOT = .8654E-3
MEAN_MOTION_DDOT = .57819E-5

CCSDS_OMM_VERS = 2.0
CREATION_DATE  = 
ORIGINATOR     = 

OBJECT_NAME    = STARLINK-36846
OBJECT_ID      = 2026-035R
CENTER_NAME    = EARTH
REF_FRAME      = TEME
TIME_SYSTEM    = UTC
MEAN_ELEMENT_THEORY = SGP/SGP4

EPOCH          = 2026-02-25T22:54:21.040416
MEAN_MOTION    = 16.10393807
ECCENTRICITY   = .000045
INCLINATION    = 97.2832
RA_OF_ASC_NODE = 348.2755
ARG_OF_PERICENTER = 20.2046
MEAN_ANOMALY   = 339.9255

EPHEMERIS_TYPE = 0
CLASSIFICATION_TYPE = U
NORAD_CAT_ID   = 67894
ELEMENT_SET_NO = 999
REV_AT_EPOCH   = 196
BSTAR          = .99501E-5
MEAN_MOTION_DOT = .8754E-4
MEAN_MOTION_DDOT = .23469E-5

CCSDS_OMM_VERS = 2.0
CREATION_DATE  = 
ORIGINATOR     = 

OBJECT_NAME    = STARLINK-36866
OBJECT_ID      = 2026-035S
CENTER_NAME    = EARTH
REF_FRAME      = TEME
TIME_SYSTEM    = UTC
MEAN_ELEMENT_THEORY = SGP/SGP4

EPOCH          = 2026-02-25T22:54:05.853888
MEAN_MOTION    = 16.10521072
ECCENTRICITY   = .0000802
INCLINATION    = 97.2831
RA_OF_ASC_NODE = 348.2756
ARG_OF_PERICENTER = 5.6764
MEAN_ANOMALY   = 354.4529

EPHEMERIS_TYPE = 0
CLASSIFICATION_TYPE = U
NORAD_CAT_ID   = 67895
ELEMENT_SET_NO = 999
REV_AT_EPOCH   = 196
BSTAR          = .20281E-5
MEAN_MOTION_DOT = .122E-4
MEAN_MOTION_DDOT = .23089E-5

CCSDS_OMM_VERS = 2.0
CREATION_DATE  = 
ORIGINATOR     = 

OBJECT_NAME    = STARLINK-36877
OBJECT_ID      = 2026-035T
CENTER_NAME    = EARTH
REF_FRAME      = TEME
TIME_SYSTEM    = UTC
MEAN_ELEMENT_THEORY = SGP/SGP4

EPOCH          = 2026-02-25T22:54:37.427040
MEAN_MOTION    = 16.10249750
ECCENTRICITY   = .000047
INCLINATION    = 97.2829
RA_OF_ASC_NODE = 348.2751
ARG_OF_PERICENTER = 70.7670
MEAN_ANOMALY   = 289.3665

EPHEMERIS_TYPE = 0
CLASSIFICATION_TYPE = U
NORAD_CAT_ID   = 67896
ELEMENT_SET_NO = 999
REV_AT_EPOCH   = 196
BSTAR          = .11144E-4
MEAN_MOTION_DOT = .9793E-4
MEAN_MOTION_DDOT = .23551E-5

CCSDS_OMM_VERS = 2.0
CREATION_DATE  = 
ORIGINATOR     = 

OBJECT_NAME    = STARLINK-36870
OBJECT_ID      = 2026-035U
CENTER_NAME    = EARTH
REF_FRAME      = TEME
TIME_SYSTEM    = UTC
MEAN_ELEMENT_THEORY = SGP/SGP4

EPOCH          = 2026-02-25T22:53:48.979968
MEAN_MOTION    = 16.10687638
ECCENTRICITY   = .0000705
INCLINATION    = 97.2829
RA_OF_ASC_NODE = 348.2758
ARG_OF_PERICENTER = 358.3824
MEAN_ANOMALY   = 1.7458

EPHEMERIS_TYPE = 0
CLASSIFICATION_TYPE = U
NORAD_CAT_ID   = 67897
ELEMENT_SET_NO = 999
REV_AT_EPOCH   = 196
BSTAR          = .24752E-4
MEAN_MOTION_DOT = .23321E-3
MEAN_MOTION_DDOT = .25701E-5

CCSDS_OMM_VERS = 2.0
CREATION_DATE  = 
ORIGINATOR     = 

OBJECT_NAME    = STARLINK-36810
OBJECT_ID      = 2026-035V
CENTER_NAME    = EARTH
REF_FRAME      = TEME
TIME_SYSTEM    = UTC
MEAN_ELEMENT_THEORY = SGP/SGP4

EPOCH          = 2026-02-25T22:53:34.927008
MEAN_MOTION    = 16.10803971
ECCENTRICITY   = .0000781
INCLINATION    = 97.2828
RA_OF_ASC_NODE = 348.2760
ARG_OF_PERICENTER = 17.4281
MEAN_ANOMALY   = 342.7030

EPHEMERIS_TYPE = 0
CLASSIFICATION_TYPE = U
NORAD_CAT_ID   = 67898
ELEMENT_SET_NO = 999
REV_AT_EPOCH   = 196
BSTAR          = .29325E-4
MEAN_MOTION_DOT = .27982E-3
MEAN_MOTION_DDOT = .26831E-5

