STARLINK-36368          
1 67887U 26035J   26056.95549081  .00070363  45821-5  78493-4 0  9991
2 67887  97.2828 348.2741 0000802 137.5190 222.6156 16.09607275  1962
STARLINK-36801          
1 67888U 26035K   26056.95532392  .00028050  26731-5  31584-4 0  9994
2 67888  97.2834 348.2742 0000218  32.5899 327.5398 16.09700536  1969
STARLINK-36372          
1 67889U 26035L   26056.95499457  .00111528  80797-5  12100-3 0  9996
2 67889  97.2827 348.2746 0000663 127.6061 232.5283 16.09980005  1966
STARLINK-36363          
1 67890U 26035M   26056.95513740  .00035847  29044-5  39745-4 0  9992
2 67890  97.2831 348.2746 0000471 119.4689 240.6641 16.09854069  1963
STARLINK-36816          
1 67891U 26035N   26056.95258052  .00094881  66005-5  91984-4 0  9999
2 67891  97.2817 348.2775 0000842   5.1269 355.0024 16.11709526  1963
STARLINK-36813          
1 67892U 26035P   26056.89157772 -.00037186  29052-5 -36796-4 0  9998
2 67892  97.2822 348.2076 0000803 105.9993 254.1380 16.10983780  1952
STARLINK-36803          
1 67893U 26035Q   26056.95480050  .00086540  57819-5  93189-4 0  9991
2 67893  97.2826 348.2750 0000574 128.6434 231.4901 16.10123857  1962
STARLINK-36846          
1 67894U 26035R   26056.95441019  .00008754  23469-5  99501-5 0  9994
2 67894  97.2832 348.2755 0000450  20.2046 339.9255 16.10393807  1964
STARLINK-36866          
1 67895U 26035S   26056.95423442  .00001220  23089-5  20281-5 0  9993
2 67895  97.2831 348.2756 0000802   5.6764 354.4529 16.10521072  1963
STARLINK-36877          
1 67896U 26035T   26056.95459985  .00009793  23551-5  11144-4 0  9999
2 67896  97.2829 348.2751 0000470  70.7670 289.3665 16.10249750  1963
STARLINK-36870          
1 67897U 26035U   26056.95403912  .00023321  25701-5  24752-4 0  9990
2 67897  97.2829 348.2758 0000705 358.3824   1.7458 16.10687638  1965
STARLINK-36810          
1 67898U 26035V   26056.95387647  .00027982  26831-5  29325-4 0  9990
2 67898  97.2828 348.2760 0000781  17.4281 342.7030 16.10803971  1966
